EXPRESS-AMU1            
1 41191U 15082A   23071.51603204  .00000162  00000+0  00000+0 0  9993
2 41191   0.0125 119.8828 0003082 228.3106  43.5388  1.00272699 26306
GAOFEN 4                
1 41194U 15083A   23071.61376716 -.00000329  00000+0  00000+0 0  9999
2 41194   0.1101 289.4329 0003335 304.5041 262.7310  1.00271869 26577
BELINTERSAT-1           
1 41238U 16001A   23071.54111914  .00000113  00000+0  00000+0 0  9998
2 41238   0.0390  75.4053 0000567 163.0274 177.7758  1.00273737 26276
IRNSS-1E                
1 41241U 16003A   23071.50298421 -.00000283  00000+0  00000+0 0  9998
2 41241  30.5815  80.4684 0019287 187.8850 194.4375  1.00275411 26125
EUTELSAT 9B             
1 41310U 16005A   23071.40951991  .00000068  00000+0  00000+0 0  9994
2 41310   0.0396  60.6454 0003301 256.9551   8.5962  1.00270477 26156
SES-9                   
1 41380U 16013A   23071.37688197 -.00000339  00000+0  00000+0 0  9993
2 41380   0.0386 293.3555 0001753 111.9943   8.3766  1.00271377 25477
EUTELSAT 65 WEST A      
1 41382U 16014A   23071.51161983 -.00000270  00000+0  00000+0 0  9995
2 41382   0.0540   1.5330 0002133   3.5592 283.7704  1.00269908 25580
IRNSS-1F                
1 41384U 16015A   23071.51533472  .00000166  00000+0  00000+0 0  9997
2 41384   2.5928 138.9614 0022508 188.8726  60.0618  1.00277324 25696
BEIDOU-2 IGSO-6         
1 41434U 16021A   23071.39840869 -.00000135  00000+0  00000+0 0  9994
2 41434  58.4953  50.0655 0048950 226.2381 133.1928  1.00273514 25516
IRNSS-1G                
1 41469U 16027A   23071.57228141 -.00000329  00000+0  00000+0 0  9996
2 41469   2.4979 141.0646 0005388 280.3674  83.9142  1.00264601 25221
JCSAT-2B                
1 41471U 16028A   23069.86729767 -.00000159  00000+0  00000+0 0  9990
2 41471   0.0180 155.7160 0000711 189.9831 288.7781  1.00269454 25145
THAICOM 8               
1 41552U 16031A   23071.59571757 -.00000116  00000+0  00000+0 0  9994
2 41552   0.0748  57.3529 0004565 334.5788  71.0290  1.00271887 24769
INTELSAT 31 (IS-31)     
1 41581U 16035A   23069.72471604 -.00000144  00000+0  00000+0 0  9993
2 41581   0.0206 223.8363 0002377 337.5484 132.5708  1.00273490 24715
BEIDOU-2 G7             
1 41586U 16037A   23071.61845709 -.00000348  00000+0  00000+0 0  9998
2 41586   1.4696  64.4663 0009992 345.6756  93.0565  1.00271411 24838
ABS-2A (MONGOLSAT-1)    
1 41588U 16038A   23071.13799194 -.00000076  00000+0  00000+0 0  9992
2 41588   0.0194 178.3131 0001233  74.9485  40.6449  1.00267375 24736
EUTELSAT 117 WEST B     
1 41589U 16038B   23069.76508576 -.00000005  00000+0  00000+0 0  9993
2 41589   0.0161 315.0562 0000098 220.9240 150.6051  1.00272845 24693
BRISAT                  
1 41591U 16039A   23069.86579104 -.00000190  00000+0  00000+0 0  9998
2 41591   0.0204 180.3578 0002313 173.3184 276.7690  1.00270425 24639
ECHOSTAR 18             
1 41592U 16039B   23071.08603046 -.00000275  00000+0  00000+0 0  9993
2 41592   0.0223 156.3329 0001456 205.4940 137.2684  1.00269059 24660
MUOS-5                  
1 41622U 16041A   23071.45985473 -.00000117  00000+0  00000+0 0  9993
2 41622   4.9832 298.9845 0192609 242.5965  48.7928  1.00270973 25125
TIANTONG-1 1            
1 41725U 16048A   23071.61086149 -.00000311  00000+0  00000+0 0  9990
2 41725   2.2672  10.7086 0007445 350.5199 130.0451  1.00274372 24314
JCSAT-16                
1 41729U 16050A   23069.81714455 -.00000247  00000+0  00000+0 0  9992
2 41729   0.0476  98.3406 0003023 199.6157 257.4068  1.00270337 24098
USA 270                 
1 41744U 16052A   23069.10525829  .00000032  00000+0  00000+0 0  9999
2 41744   1.1196  92.5389 0000257 120.5075 165.4143  1.00400105  6753
USA 271                 
1 41745U 16052B   23068.86413471  .00000154  00000+0  00000+0 0  9996
2 41745   1.0896  92.5046 0003230 253.6824 174.7538  0.99948715  6756
INTELSAT 36 (IS-36)     
1 41747U 16053A   23068.79563095 -.00000019  00000+0  00000+0 0  9990
2 41747   0.0183 131.2249 0001071 248.9719 141.9266  1.00269093 23967
INTELSAT 33E (IS-33E)   
1 41748U 16053B   23071.23365178  .00000056  00000+0  00000+0 0  9996
2 41748   0.0167 116.4393 0001759 249.1707 308.0955  1.00271037 24286
INSAT-3DR               
1 41752U 16054A   23071.53202385 -.00000071  00000+0  00000+0 0  9993
2 41752   0.0508  92.2414 0012415 188.4858 154.6818  1.00271283 23856
GSAT-18                 
1 41793U 16060A   23071.59434946 -.00000071  00000+0  00000+0 0  9991
2 41793   0.0235 101.9322 0001100 224.8864 131.0901  1.00271427 23576
SKY MUSTER 2 (NBN1B)    
1 41794U 16060B   23071.03452269 -.00000238  00000+0  00000+0 0  9994
2 41794   0.0103 225.4818 0001472 130.8303 330.3187  1.00271865 23553
HIMAWARI-9              
1 41836U 16064A   23071.39343191 -.00000269  00000+0  00000+0 0  9991
2 41836   0.0185 117.5667 0001440 264.2724  70.3145  1.00270853 23222
SHIJIAN-17 (SJ-17)      
1 41838U 16065A   23071.67267747 -.00000330  00000+0  00000+0 0  9996
2 41838   2.7041  86.6832 0004002 287.8068 140.3534  1.00419611 23275
GOES 16                 
1 41866U 16071A   23071.09008031 -.00000241  00000+0  00000+0 0  9990
2 41866   0.0807 287.3200 0000743 100.9689  98.4000  1.00270468 23151
TIANLIAN 1-04           
1 41869U 16072A   23071.61716152  .00000037  00000+0  00000+0 0  9994
2 41869   0.2086  93.4129 0020432  34.1152  81.4274  1.00272325 23341
WGS F8 (USA 272)        
1 41879U 16075A   23071.25186925 -.00000196  00000+0  00000+0 0  9994
2 41879   0.0268 141.6340 0000194 181.6372  86.8553  1.00271661 22966
FENGYUN 4A              
1 41882U 16077A   23071.61367519 -.00000323  00000+0  00000+0 0  9992
2 41882   0.1994  84.5405 0004596 343.9533  66.9710  1.00266499 23021
ECHOSTAR 19             
1 41893U 16079A   23070.98749802 -.00000131  00000+0  00000+0 0  9991
2 41893   0.0208 153.9982 0001328 208.8794  64.8914  1.00270148 22746
JCSAT-110A (JCSAT-15)   
1 41903U 16082A   23069.98240949 -.00000344  00000+0  00000+0 0  9999
2 41903   0.0184 163.1854 0001091 192.2627 276.6567  1.00270345 22780
STAR ONE D1             
1 41904U 16082B   23071.47236918 -.00000204  00000+0  00000+0 0  9993
2 41904   0.0257 108.3530 0002152 225.1421 282.3897  1.00271179 22811
TJS-2                   
1 41911U 17001A   23071.59161252  .00000000  00000+0  00000+0 0  9997
2 41911   0.2244  83.8625 0003319 133.9548 231.5708  1.00272582 22761
SBIRS GEO-4 (USA 273)   
1 41937U 17004A   23071.46461921 -.00000062  00000+0  00000+0 0  9999
2 41937   1.8656 326.9967 0002386  57.0655 186.3320  1.01063145 22649
HISPASAT 36W-1          
1 41942U 17006A   23070.98521709 -.00000237  00000+0  00000+0 0  9998
2 41942   0.0075   6.6699 0000948 345.3238 136.0522  1.00271744 22266
TELKOM 3S               
1 41944U 17007A   23071.62303784 -.00000356  00000+0  00000+0 0  9996
2 41944   0.0116 132.1543 0002131 225.0918 155.0396  1.00271675 22254
INTELSAT 32E (IS-32E)   
1 41945U 17007B   23069.61295272 -.00000262  00000+0  00000+0 0  9991
2 41945   0.0171 133.9868 0000369 232.9538 338.5422  1.00273126 22252
ECHOSTAR 23             
1 42070U 17014A   23070.60011156 -.00000050  00000+0  00000+0 0  9992
2 42070   0.0230 152.6862 0001817 206.1514 276.2961  1.00270385 21952
WGS F9 (USA 275)        
1 42075U 17016A   23071.42063422 -.00000090  00000+0  00000+0 0  9997
2 42075   0.0094 154.5188 0000514 270.0426 244.6588  1.00272449 21960
SES-10                  
1 42432U 17017A   23070.99351240 -.00000266  00000+0  00000+0 0  9999
2 42432   0.0270  88.1881 0002719 264.5127 107.4353  1.00272691 21785
CHINASAT 16 (SJ-13)     
1 42662U 17018A   23071.61701169 -.00000346  00000+0  00000+0 0  9993
2 42662   0.0733  93.8493 0005346 169.9064 238.8713  1.00270453 21786
KOREASAT 7              
1 42691U 17023A   23069.72497549 -.00000355  00000+0  00000+0 0  9994
2 42691   0.0174 315.7460 0001315  42.2162 187.0090  1.00268476 21405
SGDC                    
1 42692U 17023B   23069.74086998 -.00000243  00000+0  00000+0 0  9995
2 42692   0.0167  99.8953 0002269 260.1204 359.9730  1.00270671 21447
GSAT-9                  
1 42695U 17024A   23071.60658667 -.00000281  00000+0  00000+0 0  9997
2 42695   0.0077 186.3348 0002353 146.7546 152.6065  1.00271728 21355
INMARSAT 5-F4           
1 42698U 17025A   23068.14976984  .00000079  00000+0  00000+0 0  9995
2 42698   0.0019 189.9505 0000692 126.6520 320.3737  1.00272406 21287
SES-15                  
1 42709U 17026A   23071.48307495  .00000066  00000+0  00000+0 0  9991
2 42709   0.0152 347.1900 0000403  33.8370 193.5699  1.00270315 22226
QZS-2 (MICHIBIKI-2)     
1 42738U 17028A   23071.39168862 -.00000116  00000+0  00000+0 0  9995
2 42738  41.3293 260.3614 0745490 270.2835 280.8594  1.00263521 21184
VIASAT-2                
1 42740U 17029A   23071.23521509 -.00000258  00000+0  00000+0 0  9990
2 42740   0.0247 250.6078 0000150 182.6837 111.0721  1.00271451 21222
EUTELSAT 172B           
1 42741U 17029B   23070.42764050  .00000002  00000+0  00000+0 0  9997
2 42741   0.0496 154.5464 0000060 148.1759 192.0427  1.00276010 21756
GSAT-19                 
1 42747U 17031A   23071.44655170  .00000131  00000+0  00000+0 0  9994
2 42747   0.0614 269.0265 0005452 134.5100 334.9229  1.00271439 21177
ECHOSTAR 21             
1 42749U 17032A   23071.40396848  .00000072  00000+0  00000+0 0  9991
2 42749   3.4278 312.6797 0002436  35.5186 337.2580  1.00273429 21155
BULGARIASAT-1           
1 42801U 17038A   23071.40951991  .00000018  00000+0  00000+0 0  9992
2 42801   0.0010 185.0711 0002653 168.4824 325.5369  1.00272428 20865
HELLAS-SAT 3            
1 42814U 17040A   23071.51664219  .00000159  00000+0  00000+0 0  9991
2 42814   0.0555   7.0528 0005199   3.8104  23.9863  1.00270117 20853
GSAT-17                 
1 42815U 17040B   23071.60638644 -.00000252  00000+0  00000+0 0  9990
2 42815   0.0523 268.0131 0004712  15.6652 198.1101  1.00270767 20836
